#aV2008  4 29  0  0   .00000000      96 DD+AD WGS84 FIT  NGA
## 1477 172800.00000000   900.00000000 54585  .0000000000000
+   31     2  3  4  5  6  7  8  9 10 11 12 13 14 15 16 17 18
+         19 20 21 22 23 24 25 26 27 28 29 30 31 32  0  0  0
+          0  0  0  0  0  0  0  0  0  0  0  0  0  0  0  0  0
+          0  0  0  0  0  0  0  0  0  0  0  0  0  0  0  0  0
+          0  0  0  0  0  0  0  0  0  0  0  0  0  0  0  0  0
++         0  0  0  0  0  0  0  0  0  0  0  0  0  0  0  0  0
++         0  0  0  0  0  0  0  0  0  0  0  0  0  0  0  0  0
++         0  0  0  0  0  0  0  0  0  0  0  0  0  0  0  0  0
++         0  0  0  0  0  0  0  0  0  0  0  0  0  0  0  0  0
++         0  0  0  0  0  0  0  0  0  0  0  0  0  0  0  0  0
%c cc cc ccc ccc cccc cccc cccc cccc ccccc ccccc ccccc ccccc
%c cc cc ccc ccc cccc cccc cccc cccc ccccc ccccc ccccc ccccc
%f  0.0000000  0.000000000  0.00000000000  0.000000000000000
%f  0.0000000  0.000000000  0.00000000000  0.000000000000000
%i    0    0    0    0      0      0      0      0         0
%i    0    0    0    0      0      0      0      0         0
/*      NGA, ST. LOUIS,MO.                                  
/*   EPHEMERIS COMPUTED FROM  3 DAYS OF DATA                
/* CCCCCCCCCCCCCCCCCCCCCCCCCCCCCCCCCCCCCCCCCCCCCCCCCCCCCCCCC
/* CCCCCCCCCCCCCCCCCCCCCCCCCCCCCCCCCCCCCCCCCCCCCCCCCCCCCCCCC
*  2008  4 29 19 15   .00000000                                                 
P  2  13065.711033  16039.417134 -17014.051315    196.491472                    
V  2   -847.157539  21263.395398  19238.371596       .073620                    
P  3 -24395.405113 -10922.356440  -1378.944970    221.261595                    
V  3   2681.992851  -2795.375783 -30673.549813       .053819                    
P  4   6894.178042  23992.199527  -8620.751611    -56.551953                    
V  4  -3067.634083  11033.788067  28934.077169      -.080864                    
P  5  21000.584328 -16129.531433   -134.690577    761.018594                    
V  5   2033.111935   2903.696276  31427.516538       .087581                    
P  6 -15790.817151 -17482.437263 -12088.493356    114.340076                    
V  6  15479.485450   3987.247630 -25638.540816       .105492                    
P  7  -8315.803293  21567.453586 -13049.617110    -56.108155                    
V  7  -2867.221824 -16459.260593 -25486.229961       .104803                    
P  8   -851.742814  26280.765536   -656.402743   -150.900470                    
V  8  -2490.243385   -779.913597 -32547.040702      -.015564                    
P  9  13725.280870  -7476.602468  20824.097182    122.237384                    
V  9   2828.476248  27778.320765   8034.354139       .018158                    
P 10  19055.397101   3586.259992 -18431.659714     -1.073641                    
V 10 -19146.439608  12803.189646 -17109.358457      -.004414                    
P 11 -13621.458330  11295.756776  19581.822441     26.021127                    
V 11  -7377.561891 -24556.392319   9292.967432      -.002476                    
P 12  23616.324723 -11330.028588   4180.462271   -359.145727                    
V 12  -2952.862767   5097.528198  31280.623035      -.000595                    
P 13  -7943.016651  12148.154780 -22359.946515    252.980916                    
V 13 -24092.775313 -14286.883294    825.974394       .018204                    
P 14  -9182.219382 -18197.279955  17179.686090   -272.131997                    
V 14  19275.546246   9642.952448  20541.527828       .040858                    
P 15  24341.472636   5179.356389   9311.555141   -104.002025                    
V 15   9280.683806   7744.301819 -28623.188886      -.052787                    
P 16 -15140.092834  -7442.542711 -20485.237076    126.901260                    
V 16  21941.506893 -14197.137966 -10824.710258      -.012882                    
P 17   9215.533735  18464.417058  16848.645446     39.433811                    
V 17 -19485.262412  -8676.434115  20054.107801      -.002622                    
P 18  14175.641498 -18547.947762  12500.822212   -182.741246                    
V 18  15072.037753  -5417.411273 -25840.826736       .034922                    
P 19 -23806.485949  -6273.204472  10286.074571     28.596691                    
V 19  -9661.512508  -8855.438328 -27821.441998       .009840                    
P 20 -22928.861002  13181.832457   2033.654550    115.439842                    
V 20    502.829399  -4235.815614  31345.479980      -.007935                    
P 21   5530.427270 -24361.240112  -7883.654463     65.697256                    
V 21   3972.126645  10411.959305 -29351.313638      -.010286                    
P 22    579.852615 -17224.620002  20349.308296    210.850134                    
V 22  22777.176918 -11667.749032 -10653.085145       .000692                    
P 23 -19515.474919   3422.389753 -17874.961000    350.719057                    
V 23 -19183.945457 -11710.337380  18541.587868       .023189                    
P 24  12859.244221 -14885.513227 -17807.179309     90.148187                    
V 24   1282.822551  22887.216000 -17759.921564       .028820                    
P 25 -10280.618705  16490.955585 -17823.586870   -115.852829                    
V 25  -4577.409320 -22887.420833 -17990.289860      -.278221                    
P 26  24172.970971   9913.084346   5715.221645    242.551608                    
V 26   6002.280804   5096.150143 -31020.329267       .083487                    
P 27  -4878.532840  23565.969727 -10398.529135    184.890771                    
V 27  -3899.438185 -13931.609305 -28102.069986       .027418                    
P 28  -2528.626114  17628.871571  19981.659802    -18.406189                    
V 28 -21840.456254  11464.254816 -13462.772365      -.005607                    
P 29  11612.872178 -10600.890590 -21282.241593    -43.540589                    
V 29  23601.029701  13759.659428   6017.168435       .003308                    
P 30  17920.415729 -18356.148606  -7013.852370     74.178833                    
V 30   8756.196363  -2267.002549  29833.684308       .018004                    
P 31  -7732.451545 -23275.371623  -9850.567649    -18.197127                    
V 31   1937.581228 -12921.572538  28521.846954      -.013602                    
P 32 -19294.524108  -4073.510734  18154.569187    277.418445                    
V 32  19096.097873 -11448.690417  18326.370772       .059798                    
EOF
